[{"OBJECT_NAME":"FLOCK 4G-8","OBJECT_ID":"2025-009E","EPOCH":"2026-04-26T20:23:43.753344","MEAN_MOTION":15.28736337,"ECCENTRICITY":0.00056493,"INCLINATION":97.4009,"RA_OF_ASC_NODE":199.1098,"ARG_OF_PERICENTER":130.5153,"MEAN_ANOMALY":229.6579,"EPHEMERIS_TYPE":0,"CLASSIFICATION_TYPE":"U","NORAD_CAT_ID":62613,"ELEMENT_SET_NO":999,"REV_AT_EPOCH":7107,"BSTAR":0.00043710135,"MEAN_MOTION_DOT":0.00012148,"MEAN_MOTION_DDOT":0},{"OBJECT_NAME":"FLOCK 4G-13","OBJECT_ID":"2025-009N","EPOCH":"2026-04-27T04:30:38.354688","MEAN_MOTION":15.38268716,"ECCENTRICITY":0.00056715,"INCLINATION":97.3973,"RA_OF_ASC_NODE":199.7944,"ARG_OF_PERICENTER":146.6125,"MEAN_ANOMALY":213.5478,"EPHEMERIS_TYPE":0,"CLASSIFICATION_TYPE":"U","NORAD_CAT_ID":62621,"ELEMENT_SET_NO":999,"REV_AT_EPOCH":7114,"BSTAR":0.0020306183,"MEAN_MOTION_DOT":0.00077199,"MEAN_MOTION_DDOT":0},{"OBJECT_NAME":"FLOCK 4G-9","OBJECT_ID":"2025-009P","EPOCH":"2026-04-27T04:18:29.492064","MEAN_MOTION":15.27162374,"ECCENTRICITY":0.00059731,"INCLINATION":97.3963,"RA_OF_ASC_NODE":198.5399,"ARG_OF_PERICENTER":135.0615,"MEAN_ANOMALY":225.1109,"EPHEMERIS_TYPE":0,"CLASSIFICATION_TYPE":"U","NORAD_CAT_ID":62622,"ELEMENT_SET_NO":999,"REV_AT_EPOCH":7107,"BSTAR":0.00045119678,"MEAN_MOTION_DOT":0.00011955,"MEAN_MOTION_DDOT":0},{"OBJECT_NAME":"FLOCK 4G-7","OBJECT_ID":"2025-009R","EPOCH":"2026-04-27T04:53:13.749504","MEAN_MOTION":15.28242699,"ECCENTRICITY":0.00042272,"INCLINATION":97.395,"RA_OF_ASC_NODE":198.8524,"ARG_OF_PERICENTER":128.5707,"MEAN_ANOMALY":231.5911,"EPHEMERIS_TYPE":0,"CLASSIFICATION_TYPE":"U","NORAD_CAT_ID":62624,"ELEMENT_SET_NO":999,"REV_AT_EPOCH":7111,"BSTAR":0.00048214451,"MEAN_MOTION_DOT":0.00013206,"MEAN_MOTION_DDOT":0},{"OBJECT_NAME":"FLOCK 4G-12","OBJECT_ID":"2025-009S","EPOCH":"2026-04-27T04:37:45.972480","MEAN_MOTION":15.28105732,"ECCENTRICITY":0.00057299,"INCLINATION":97.4024,"RA_OF_ASC_NODE":199.3235,"ARG_OF_PERICENTER":126.4101,"MEAN_ANOMALY":233.7668,"EPHEMERIS_TYPE":0,"CLASSIFICATION_TYPE":"U","NORAD_CAT_ID":62625,"ELEMENT_SET_NO":999,"REV_AT_EPOCH":7111,"BSTAR":0.00053996368,"MEAN_MOTION_DOT":0.00014743,"MEAN_MOTION_DDOT":0},{"OBJECT_NAME":"FLOCK 4G-11","OBJECT_ID":"2025-009W","EPOCH":"2026-04-27T06:01:15.294144","MEAN_MOTION":15.28296051,"ECCENTRICITY":0.00042193,"INCLINATION":97.3928,"RA_OF_ASC_NODE":199.0242,"ARG_OF_PERICENTER":130.0648,"MEAN_ANOMALY":230.0963,"EPHEMERIS_TYPE":0,"CLASSIFICATION_TYPE":"U","NORAD_CAT_ID":62629,"ELEMENT_SET_NO":999,"REV_AT_EPOCH":7113,"BSTAR":0.00049215364,"MEAN_MOTION_DOT":0.00013505,"MEAN_MOTION_DDOT":0},{"OBJECT_NAME":"PELICAN-2","OBJECT_ID":"2025-009Y","EPOCH":"2026-04-27T06:05:33.285408","MEAN_MOTION":15.40508972,"ECCENTRICITY":0.00035241,"INCLINATION":97.3531,"RA_OF_ASC_NODE":208.0673,"ARG_OF_PERICENTER":98.9487,"MEAN_ANOMALY":261.2158,"EPHEMERIS_TYPE":0,"CLASSIFICATION_TYPE":"U","NORAD_CAT_ID":62631,"ELEMENT_SET_NO":999,"REV_AT_EPOCH":7171,"BSTAR":0.0016469117,"MEAN_MOTION_DOT":0.00067243,"MEAN_MOTION_DDOT":0},{"OBJECT_NAME":"FLOCK 4G-26","OBJECT_ID":"2025-009AA","EPOCH":"2026-04-27T04:54:57.724992","MEAN_MOTION":15.28359662,"ECCENTRICITY":0.00049935,"INCLINATION":97.4021,"RA_OF_ASC_NODE":199.469,"ARG_OF_PERICENTER":120.1491,"MEAN_ANOMALY":240.0244,"EPHEMERIS_TYPE":0,"CLASSIFICATION_TYPE":"U","NORAD_CAT_ID":62633,"ELEMENT_SET_NO":999,"REV_AT_EPOCH":7112,"BSTAR":0.00046200295,"MEAN_MOTION_DOT":0.00012697,"MEAN_MOTION_DDOT":0},{"OBJECT_NAME":"FLOCK 4G-28","OBJECT_ID":"2025-009AB","EPOCH":"2026-04-27T04:32:05.129664","MEAN_MOTION":15.34001095,"ECCENTRICITY":0.00034243,"INCLINATION":97.4024,"RA_OF_ASC_NODE":201.5802,"ARG_OF_PERICENTER":116.9833,"MEAN_ANOMALY":243.176,"EPHEMERIS_TYPE":0,"CLASSIFICATION_TYPE":"U","NORAD_CAT_ID":62634,"ELEMENT_SET_NO":999,"REV_AT_EPOCH":7126,"BSTAR":0.00033684759,"MEAN_MOTION_DOT":0.00011007,"MEAN_MOTION_DDOT":0},{"OBJECT_NAME":"FLOCK 4G-20","OBJECT_ID":"2025-009AD","EPOCH":"2026-04-27T04:07:31.810944","MEAN_MOTION":15.44187507,"ECCENTRICITY":0.00041786,"INCLINATION":97.3891,"RA_OF_ASC_NODE":200.4482,"ARG_OF_PERICENTER":167.9434,"MEAN_ANOMALY":192.1916,"EPHEMERIS_TYPE":0,"CLASSIFICATION_TYPE":"U","NORAD_CAT_ID":62636,"ELEMENT_SET_NO":999,"REV_AT_EPOCH":7122,"BSTAR":0.0021910303,"MEAN_MOTION_DOT":0.00101614,"MEAN_MOTION_DDOT":0},{"OBJECT_NAME":"FLOCK 4G-24","OBJECT_ID":"2025-009AE","EPOCH":"2026-04-27T04:09:42.723360","MEAN_MOTION":15.28908242,"ECCENTRICITY":0.0004584,"INCLINATION":97.4024,"RA_OF_ASC_NODE":199.6826,"ARG_OF_PERICENTER":110.7932,"MEAN_ANOMALY":249.3799,"EPHEMERIS_TYPE":0,"CLASSIFICATION_TYPE":"U","NORAD_CAT_ID":62637,"ELEMENT_SET_NO":999,"REV_AT_EPOCH":7113,"BSTAR":0.00050064441,"MEAN_MOTION_DOT":0.00014,"MEAN_MOTION_DDOT":0},{"OBJECT_NAME":"FLOCK 4G-3","OBJECT_ID":"2025-009AG","EPOCH":"2026-04-27T04:53:34.703232","MEAN_MOTION":15.28307708,"ECCENTRICITY":0.00045088,"INCLINATION":97.4029,"RA_OF_ASC_NODE":199.4852,"ARG_OF_PERICENTER":116.7283,"MEAN_ANOMALY":243.4419,"EPHEMERIS_TYPE":0,"CLASSIFICATION_TYPE":"U","NORAD_CAT_ID":62639,"ELEMENT_SET_NO":999,"REV_AT_EPOCH":7111,"BSTAR":0.00041291151,"MEAN_MOTION_DOT":0.00011319,"MEAN_MOTION_DDOT":0},{"OBJECT_NAME":"FLOCK 4G-27","OBJECT_ID":"2025-009AJ","EPOCH":"2026-04-27T03:44:26.038752","MEAN_MOTION":15.28287161,"ECCENTRICITY":0.0003765,"INCLINATION":97.3942,"RA_OF_ASC_NODE":198.8859,"ARG_OF_PERICENTER":120.216,"MEAN_ANOMALY":239.9453,"EPHEMERIS_TYPE":0,"CLASSIFICATION_TYPE":"U","NORAD_CAT_ID":62641,"ELEMENT_SET_NO":999,"REV_AT_EPOCH":7110,"BSTAR":0.00052910664,"MEAN_MOTION_DOT":0.00014521,"MEAN_MOTION_DDOT":0},{"OBJECT_NAME":"FLOCK 4G-29","OBJECT_ID":"2025-009AK","EPOCH":"2026-04-27T05:05:09.249504","MEAN_MOTION":15.28405959,"ECCENTRICITY":0.00044992,"INCLINATION":97.4024,"RA_OF_ASC_NODE":199.4506,"ARG_OF_PERICENTER":113.678,"MEAN_ANOMALY":246.4933,"EPHEMERIS_TYPE":0,"CLASSIFICATION_TYPE":"U","NORAD_CAT_ID":62642,"ELEMENT_SET_NO":999,"REV_AT_EPOCH":7111,"BSTAR":0.00044734626,"MEAN_MOTION_DOT":0.00012308,"MEAN_MOTION_DDOT":0},{"OBJECT_NAME":"FLOCK 4G-22","OBJECT_ID":"2025-009AN","EPOCH":"2026-04-27T05:21:33.355872","MEAN_MOTION":15.28272702,"ECCENTRICITY":0.00039842,"INCLINATION":97.4012,"RA_OF_ASC_NODE":199.5266,"ARG_OF_PERICENTER":113.7264,"MEAN_ANOMALY":246.4394,"EPHEMERIS_TYPE":0,"CLASSIFICATION_TYPE":"U","NORAD_CAT_ID":62645,"ELEMENT_SET_NO":999,"REV_AT_EPOCH":7113,"BSTAR":0.00045754263,"MEAN_MOTION_DOT":0.00012539,"MEAN_MOTION_DDOT":0},{"OBJECT_NAME":"FLOCK 4G-25","OBJECT_ID":"2025-009AP","EPOCH":"2026-04-27T04:58:22.092096","MEAN_MOTION":15.28455083,"ECCENTRICITY":0.00035363,"INCLINATION":97.4016,"RA_OF_ASC_NODE":199.5589,"ARG_OF_PERICENTER":120.1189,"MEAN_ANOMALY":240.0402,"EPHEMERIS_TYPE":0,"CLASSIFICATION_TYPE":"U","NORAD_CAT_ID":62646,"ELEMENT_SET_NO":999,"REV_AT_EPOCH":7113,"BSTAR":0.00041635067,"MEAN_MOTION_DOT":0.00011465,"MEAN_MOTION_DDOT":0}]
