FLOCK 4G-8              
1 62613U 25009E   26116.84981196  .00012148  00000+0  43710-3 0  9999
2 62613  97.4009 199.1098 0005649 130.5153 229.6579 15.28736337 71078
FLOCK 4G-13             
1 62621U 25009N   26117.18794392  .00077199  00000+0  20306-2 0  9998
2 62621  97.3973 199.7944 0005671 146.6125 213.5478 15.38268716 71144
FLOCK 4G-9              
1 62622U 25009P   26117.17950801  .00011955  00000+0  45120-3 0  9997
2 62622  97.3963 198.5399 0005973 135.0615 225.1109 15.27162374 71079
FLOCK 4G-7              
1 62624U 25009R   26117.20363136  .00013206  00000+0  48214-3 0  9990
2 62624  97.3950 198.8524 0004227 128.5707 231.5911 15.28242699 71117
FLOCK 4G-12             
1 62625U 25009S   26117.19289320  .00014743  00000+0  53996-3 0  9991
2 62625  97.4024 199.3235 0005729 126.4101 233.7668 15.28105732 71118
FLOCK 4G-11             
1 62629U 25009W   26117.25087146  .00013505  00000+0  49215-3 0  9998
2 62629  97.3928 199.0242 0004219 130.0648 230.0963 15.28296051 71134
PELICAN-2               
1 62631U 25009Y   26117.25385747  .00067243  00000+0  16469-2 0  9991
2 62631  97.3531 208.0673 0003524  98.9487 261.2158 15.40508972 71715
FLOCK 4G-26             
1 62633U 25009AA  26117.20483478  .00012697  00000+0  46200-3 0  9998
2 62633  97.4021 199.4690 0004993 120.1491 240.0244 15.28359662 71120
FLOCK 4G-28             
1 62634U 25009AB  26117.18894826  .00011007  00000+0  33685-3 0  9996
2 62634  97.4024 201.5802 0003424 116.9833 243.1760 15.34001095 71268
FLOCK 4G-20             
1 62636U 25009AD  26117.17189596  .00101614  00000+0  21910-2 0  9999
2 62636  97.3891 200.4482 0004178 167.9434 192.1916 15.44187507 71229
FLOCK 4G-24             
1 62637U 25009AE  26117.17341115  .00014000  00000+0  50064-3 0  9992
2 62637  97.4024 199.6826 0004584 110.7932 249.3799 15.28908242 71133
FLOCK 4G-3              
1 62639U 25009AG  26117.20387388  .00011319  00000+0  41291-3 0  9992
2 62639  97.4029 199.4852 0004508 116.7283 243.4419 15.28307708 71110
FLOCK 4G-27             
1 62641U 25009AJ  26117.15585693  .00014521  00000+0  52911-3 0  9997
2 62641  97.3942 198.8859 0003765 120.2160 239.9453 15.28287161 71101
FLOCK 4G-29             
1 62642U 25009AK  26117.21191261  .00012308  00000+0  44735-3 0  9995
2 62642  97.4024 199.4506 0004499 113.6780 246.4933 15.28405959 71113
FLOCK 4G-22             
1 62645U 25009AN  26117.22330273  .00012539  00000+0  45754-3 0  9995
2 62645  97.4012 199.5266 0003984 113.7264 246.4394 15.28272702 71134
FLOCK 4G-25             
1 62646U 25009AP  26117.20720014  .00011465  00000+0  41635-3 0  9991
2 62646  97.4016 199.5589 0003536 120.1189 240.0402 15.28455083 71133
